[{"OBJECT_NAME":"TRANSPORTER-11 OBJECT A","OBJECT_ID":"2024-149A","EPOCH":"2026-03-09T17:54:54.302112","MEAN_MOTION":15.31141332,"ECCENTRICITY":0.00031096,"INCLINATION":97.378,"RA_OF_ASC_NODE":149.0949,"ARG_OF_PERICENTER":191.001,"MEAN_ANOMALY":169.1164,"EPHEMERIS_TYPE":0,"CLASSIFICATION_TYPE":"U","NORAD_CAT_ID":60468,"ELEMENT_SET_NO":999,"REV_AT_EPOCH":8683,"BSTAR":0.00036053677,"MEAN_MOTION_DOT":0.00010774,"MEAN_MOTION_DDOT":0},{"OBJECT_NAME":"STARLINK-35413","OBJECT_ID":"2025-224E","EPOCH":"2026-03-09T03:23:12.263424","MEAN_MOTION":15.3021501,"ECCENTRICITY":8.989e-5,"INCLINATION":53.1598,"RA_OF_ASC_NODE":13.6647,"ARG_OF_PERICENTER":98.4319,"MEAN_ANOMALY":261.6784,"EPHEMERIS_TYPE":0,"CLASSIFICATION_TYPE":"U","NORAD_CAT_ID":65886,"ELEMENT_SET_NO":999,"REV_AT_EPOCH":2469,"BSTAR":0.0013363724,"MEAN_MOTION_DOT":0.00039449,"MEAN_MOTION_DDOT":0}]
