TRANSPORTER-11 OBJECT A 
1 60468U 24149A   26068.74646182  .00010774  00000+0  36054-3 0  9993
2 60468  97.3780 149.0949 0003110 191.0010 169.1164 15.31141332 86830
STARLINK-35413          
1 65886U 25224E   26068.14111416  .00039449  00000+0  13364-2 0  9996
2 65886  53.1598  13.6647 0000898  98.4319 261.6784 15.30215010 24695
